ONEWEB-0275             
1 48993U 21060AC  24128.46826164 -.00000055  00000+0 -17639-3 0  9996
2 48993  87.9146  22.1896 0001903  86.8406 273.2943 13.16592649138146
ONEWEB-0276             
1 48994U 21060AD  24128.42550438 -.00000050  00000+0 -16370-3 0  9997
2 48994  87.9146  22.1942 0002001  90.4668 269.6692 13.16592226138152
ONEWEB-0278             
1 48996U 21060AF  24128.42868060 -.00000008  00000+0 -55265-4 0  9992
2 48996  87.9144  22.1902 0002163  76.9314 283.2058 13.16593758138276
ONEWEB-0279             
1 48997U 21060AG  24128.43658412  .00000063  00000+0  13035-3 0  9999
2 48997  87.9144  22.1867 0001789  95.8509 264.2826 13.16592466138206
ONEWEB-0282             
1 49000U 21060AK  24128.41125375  .00000044  00000+0  80879-4 0  9990
2 49000  87.9146  22.2113 0002035  91.2488 268.8876 13.16597213138187
